*******************************************************************************
JPL/HORIZONS              4503 Cleobulus (1989 WM)         2023-Sep-05 05:18:35
Rec #:    4503 (+COV) Soln.date: 2023-Sep-04_05:54:11   # obs: 1281 (1980-2023)
 
IAU76/J2000 helio. ecliptic osc. elements (au, days, deg., period=Julian yrs):
 
  EPOCH=  2457720.5 ! 2016-Nov-28.00 (TDB)         Residual RMS= .27766
   EC= .5230147327652268   QR= 1.291090179770096   TP= 2457678.4030197007
   OM= 46.00630428332382   W=  76.37303153660078   IN= 2.513612968574621
   A= 2.706771610064465    MA= 9.317032253485161   ADIST= 4.122453040358833
   PER= 4.45334            N= .221323054           ANGMOM= .024121915
   DAN= 1.75063            DDN= 2.2427             L= 122.3667018
   B= 2.4428118            MOID= .31013599         TP= 2016-Oct-16.9030197007
 
Asteroid physical parameters (km, seconds, rotational period in hours):
   GM= n.a.                RAD= n.a.               ROTPER= 2.8164
   H= 15.82                G= .150                 B-V= n.a.
                           ALBEDO= n.a.            STYP= Sq

ASTEROID comments: 
1: soln ref.= JPL#215, OCC=0
2: source=ORB
*******************************************************************************


*******************************************************************************
Ephemeris / API_USER Tue Sep  5 05:18:35 2023 Pasadena, USA      / Horizons
*******************************************************************************
Target body name: 4503 Cleobulus (1989 WM)        {source: JPL#215}
Center body name: Solar System Barycenter (0)     {source: DE441}
Center-site name: BODY CENTER
*******************************************************************************
Start time      : A.D. 2023-Aug-12 00:00:00.0000 TDB
Stop  time      : A.D. 2023-Aug-13 00:00:00.0000 TDB
Step-size       : 2880 minutes
*******************************************************************************
Center geodetic : 0.0, 0.0, 0.0                   {E-lon(deg),Lat(deg),Alt(km)}
Center cylindric: 0.0, 0.0, 0.0                   {E-lon(deg),Dxy(km),Dz(km)}
Center radii    : (undefined)
Small perturbers: Yes                             {source: SB441-N16}
Output units    : KM-S
Calendar mode   : Mixed Julian/Gregorian
Output type     : GEOMETRIC cartesian states
Output format   : 2 (position and velocity)
Reference frame : Ecliptic of J2000.0
*******************************************************************************
Initial IAU76/J2000 heliocentric ecliptic osculating elements (au, days, deg.):
  EPOCH=  2457720.5 ! 2016-Nov-28.00 (TDB)         Residual RMS= .27766        
   EC= .5230147327652268   QR= 1.291090179770096   TP= 2457678.4030197007      
   OM= 46.00630428332382   W=  76.37303153660078   IN= 2.513612968574621       
  Equivalent ICRF heliocentric cartesian coordinates (au, au/d):
   X=-1.249318355411763E+00  Y= 4.893885891982444E-01  Z= 2.737206495597154E-01
  VX=-1.042570383002073E-02 VY=-1.337979411461148E-02 VZ=-5.928313867195206E-03
Asteroid physical parameters (km, seconds, rotational period in hours):        
   GM= n.a.                RAD= n.a.               ROTPER= 2.8164              
   H= 15.82                G= .150                 B-V= n.a.                   
                           ALBEDO= n.a.            STYP= Sq                    
*******************************************************************************
JDTDB
   X     Y     Z
   VX    VY    VZ
*******************************************************************************
$$SOE
2460168.500000000 = A.D. 2023-Aug-12 00:00:00.0000 TDB 
 X = 3.646033608228473E+08 Y =-4.933052212194030E+08 Z =-2.655366051495400E+07
 VX= 7.646383428221909E+00 VY= 6.723088165690910E+00 VZ=-3.547412118957283E-02
$$EOE
*******************************************************************************
 
TIME

  Barycentric Dynamical Time ("TDB" or T_eph) output was requested. This
continuous coordinate time is equivalent to the relativistic proper time
of a clock at rest in a reference frame co-moving with the solar system
barycenter but outside the system's gravity well. It is the independent
variable in the solar system relativistic equations of motion.

  TDB runs at a uniform rate of one SI second per second and is independent
of irregularities in Earth's rotation.
 
CALENDAR SYSTEM

  Mixed calendar mode was active such that calendar dates after AD 1582-Oct-15
(if any) are in the modern Gregorian system. Dates prior to 1582-Oct-5 (if any)
are in the Julian calendar system, which is automatically extended for dates
prior to its adoption on 45-Jan-1 BC.  The Julian calendar is useful for
matching historical dates. The Gregorian calendar more accurately corresponds
to the Earth's orbital motion and seasons. A "Gregorian-only" calendar mode is
available if such physical events are the primary interest.

REFERENCE FRAME AND COORDINATES

  Ecliptic at the standard reference epoch

    Reference epoch: J2000.0
    X-Y plane: adopted Earth orbital plane at the reference epoch
               Note: IAU76 obliquity of 84381.448 arcseconds wrt ICRF X-Y plane
    X-axis   : ICRF
    Z-axis   : perpendicular to the X-Y plane in the directional (+ or -) sense
               of Earth's north pole at the reference epoch.

  Symbol meaning:

    JDTDB    Julian Day Number, Barycentric Dynamical Time
      X      X-component of position vector (km)
      Y      Y-component of position vector (km)
      Z      Z-component of position vector (km)
      VX     X-component of velocity vector (km/sec)                           
      VY     Y-component of velocity vector (km/sec)                           
      VZ     Z-component of velocity vector (km/sec)                           

ABERRATIONS AND CORRECTIONS

 Geometric state vectors have NO corrections or aberrations applied.

Computations by ...

    Solar System Dynamics Group, Horizons On-Line Ephemeris System
    4800 Oak Grove Drive, Jet Propulsion Laboratory
    Pasadena, CA  91109   USA

    General site: https://ssd.jpl.nasa.gov/
    Mailing list: https://ssd.jpl.nasa.gov/email_list.html
    System news : https://ssd.jpl.nasa.gov/horizons/news.html
    User Guide  : https://ssd.jpl.nasa.gov/horizons/manual.html
    Connect     : browser        https://ssd.jpl.nasa.gov/horizons/app.html#/x
                  API            https://ssd-api.jpl.nasa.gov/doc/horizons.html
                  command-line   telnet ssd.jpl.nasa.gov 6775
                  e-mail/batch   https://ssd.jpl.nasa.gov/ftp/ssd/hrzn_batch.txt
                  scripts        https://ssd.jpl.nasa.gov/ftp/ssd/SCRIPTS
    Author      : Jon.D.Giorgini@jpl.nasa.gov
*******************************************************************************
